SALSAT                  
1 46495U 20068K   26095.25293326  .00010667  00000+0  38421-3 0  9998
2 46495  97.8868  93.9405 0009584 187.7921 172.3170 15.28731219304217
XW-3 (CAS-9)            
1 50466U 21131B   26095.30147233  .00000903  00000+0  29291-3 0  9991
2 50466  98.4952 188.1021 0003290 332.4022  27.6991 14.41287823224610
GREENCUBE (IO-117)      
1 53109U 22080E   26094.56827725 -.00000003  00000+0  00000+0 0  9995
2 53109  70.1528 323.8593 0009014 305.8170  54.1652  6.42583190 87336
UMKA 1 (RS40S)          
1 57172U 23091G   26095.23749839  .00009222  00000+0  42998-3 0  9993
2 57172  97.5118 154.2340 0013254  21.3976 338.7811 15.20017919152922
CUBESX-HSE 3 (RS42S)    
1 57178U 23091N   26095.26493706  .00017906  00000+0  62777-3 0  9996
2 57178  97.5150 160.0112 0010578 358.6298   1.4911 15.29460976153273
MONITOR-3 (RS58S)       
1 57180U 23091Q   26095.13736353  .00015295  00000+0  58816-3 0  9991
2 57180  97.5145 158.1050 0011719   4.9292 355.2060 15.26438828153141
MONITOR-4 (RS57S)       
1 57182U 23091S   26095.25205995  .00015050  00000+0  57715-3 0  9995
2 57182  97.5139 158.1870 0011626   5.0374 355.0979 15.26534630153163
MONITOR-2 (RS39S)       
1 57184U 23091U   26095.23683278  .00007751  00000+0  38103-3 0  9998
2 57184  97.5141 154.0007 0011479  14.9567 345.2004 15.18256790152881
SVYATOBOR 1 (RS60S)     
1 57187U 23091X   26095.27283482  .00012122  00000+0  48178-3 0  9999
2 57187  97.5150 158.7320 0009169 358.5505   1.5704 15.25419257153196
VIZARD-METEO (RS38S)    
1 57189U 23091Z   26095.12959421  .00023393  00000+0  71612-3 0  9999
2 57189  97.5142 163.2622 0006499 340.6991  19.4004 15.33808223153486
NANOZOND 1 (RS49S)      
1 57190U 23091AA  26095.18694954  .00648711  17327-3  18773-2 0  9993
2 57190  97.4955 177.8523 0007213 261.1338  98.9120 15.92951586154463
POLYTECH-UNIVERSE 3 (R*)
1 57191U 23091AB  26095.27353588  .00007007  00000+0  34230-3 0  9999
2 57191  97.5117 153.5432 0016286  28.9709 331.2426 15.18450456152880
UTMN 2 (RS27S)          
1 57203U 23091AP  26095.25804801  .00018319  00000+0  62574-3 0  9990
2 57203  97.5143 161.5481 0007467 347.3830  12.7223 15.30332422153388
KUZGTU 1 (RS47S)        
1 57217U 23091AV  26095.13000237  .00017553  00000+0  63834-3 0  9992
2 57217  97.5125 158.9364 0010871   2.6391 357.4903 15.28262031153210
SONATE-2                
1 59112U 24043Q   26095.15147432  .00048232  00000+0  75266-3 0  9997
2 59112  97.5444 241.4039 0007677 112.3720 247.8347 15.53658637116539
MESAT1                  
1 60209U 24125G   26095.15099479  .00057630  00000+0  81319-3 0  9992
2 60209  97.2402 311.3199 0012631 125.8363 234.4068 15.56315535 98183
