[{"OBJECT_NAME":"SALSAT","OBJECT_ID":"2020-068K","EPOCH":"2026-04-05T06:04:13.433664","MEAN_MOTION":15.28731219,"ECCENTRICITY":0.00095847,"INCLINATION":97.8868,"RA_OF_ASC_NODE":93.9405,"ARG_OF_PERICENTER":187.7921,"MEAN_ANOMALY":172.317,"EPHEMERIS_TYPE":0,"CLASSIFICATION_TYPE":"U","NORAD_CAT_ID":46495,"ELEMENT_SET_NO":999,"REV_AT_EPOCH":30421,"BSTAR":0.00038420903,"MEAN_MOTION_DOT":0.00010667,"MEAN_MOTION_DDOT":0},{"OBJECT_NAME":"XW-3 (CAS-9)","OBJECT_ID":"2021-131B","EPOCH":"2026-04-05T07:14:07.209312","MEAN_MOTION":14.41287823,"ECCENTRICITY":0.00032907,"INCLINATION":98.4952,"RA_OF_ASC_NODE":188.1021,"ARG_OF_PERICENTER":332.4022,"MEAN_ANOMALY":27.6991,"EPHEMERIS_TYPE":0,"CLASSIFICATION_TYPE":"U","NORAD_CAT_ID":50466,"ELEMENT_SET_NO":999,"REV_AT_EPOCH":22461,"BSTAR":0.00029290959,"MEAN_MOTION_DOT":9.03e-6,"MEAN_MOTION_DDOT":0},{"OBJECT_NAME":"GREENCUBE (IO-117)","OBJECT_ID":"2022-080E","EPOCH":"2026-04-04T13:38:19.154400","MEAN_MOTION":6.4258319,"ECCENTRICITY":0.0009014,"INCLINATION":70.1528,"RA_OF_ASC_NODE":323.8593,"ARG_OF_PERICENTER":305.817,"MEAN_ANOMALY":54.1652,"EPHEMERIS_TYPE":0,"CLASSIFICATION_TYPE":"U","NORAD_CAT_ID":53109,"ELEMENT_SET_NO":999,"REV_AT_EPOCH":8733,"BSTAR":0,"MEAN_MOTION_DOT":-3.0e-8,"MEAN_MOTION_DDOT":0},{"OBJECT_NAME":"UMKA 1 (RS40S)","OBJECT_ID":"2023-091G","EPOCH":"2026-04-05T05:41:59.860896","MEAN_MOTION":15.20017919,"ECCENTRICITY":0.00132548,"INCLINATION":97.5118,"RA_OF_ASC_NODE":154.234,"ARG_OF_PERICENTER":21.3976,"MEAN_ANOMALY":338.7811,"EPHEMERIS_TYPE":0,"CLASSIFICATION_TYPE":"U","NORAD_CAT_ID":57172,"ELEMENT_SET_NO":999,"REV_AT_EPOCH":15292,"BSTAR":0.0004299788,"MEAN_MOTION_DOT":9.222e-5,"MEAN_MOTION_DDOT":0},{"OBJECT_NAME":"CUBESX-HSE 3 (RS42S)","OBJECT_ID":"2023-091N","EPOCH":"2026-04-05T06:21:30.561984","MEAN_MOTION":15.29460976,"ECCENTRICITY":0.00105784,"INCLINATION":97.515,"RA_OF_ASC_NODE":160.0112,"ARG_OF_PERICENTER":358.6298,"MEAN_ANOMALY":1.4911,"EPHEMERIS_TYPE":0,"CLASSIFICATION_TYPE":"U","NORAD_CAT_ID":57178,"ELEMENT_SET_NO":999,"REV_AT_EPOCH":15327,"BSTAR":0.00062776506,"MEAN_MOTION_DOT":0.00017906,"MEAN_MOTION_DDOT":0},{"OBJECT_NAME":"MONITOR-3 (RS58S)","OBJECT_ID":"2023-091Q","EPOCH":"2026-04-05T03:17:48.208992","MEAN_MOTION":15.26438828,"ECCENTRICITY":0.00117196,"INCLINATION":97.5145,"RA_OF_ASC_NODE":158.105,"ARG_OF_PERICENTER":4.9292,"MEAN_ANOMALY":355.206,"EPHEMERIS_TYPE":0,"CLASSIFICATION_TYPE":"U","NORAD_CAT_ID":57180,"ELEMENT_SET_NO":999,"REV_AT_EPOCH":15314,"BSTAR":0.00058815518,"MEAN_MOTION_DOT":0.00015295,"MEAN_MOTION_DDOT":0},{"OBJECT_NAME":"MONITOR-4 (RS57S)","OBJECT_ID":"2023-091S","EPOCH":"2026-04-05T06:02:57.979680","MEAN_MOTION":15.2653463,"ECCENTRICITY":0.0011626,"INCLINATION":97.5139,"RA_OF_ASC_NODE":158.187,"ARG_OF_PERICENTER":5.0374,"MEAN_ANOMALY":355.0979,"EPHEMERIS_TYPE":0,"CLASSIFICATION_TYPE":"U","NORAD_CAT_ID":57182,"ELEMENT_SET_NO":999,"REV_AT_EPOCH":15316,"BSTAR":0.00057715266,"MEAN_MOTION_DOT":0.0001505,"MEAN_MOTION_DDOT":0},{"OBJECT_NAME":"MONITOR-2 (RS39S)","OBJECT_ID":"2023-091U","EPOCH":"2026-04-05T05:41:02.352192","MEAN_MOTION":15.1825679,"ECCENTRICITY":0.00114791,"INCLINATION":97.5141,"RA_OF_ASC_NODE":154.0007,"ARG_OF_PERICENTER":14.9567,"MEAN_ANOMALY":345.2004,"EPHEMERIS_TYPE":0,"CLASSIFICATION_TYPE":"U","NORAD_CAT_ID":57184,"ELEMENT_SET_NO":999,"REV_AT_EPOCH":15288,"BSTAR":0.00038102712,"MEAN_MOTION_DOT":7.751e-5,"MEAN_MOTION_DDOT":0},{"OBJECT_NAME":"SVYATOBOR 1 (RS60S)","OBJECT_ID":"2023-091X","EPOCH":"2026-04-05T06:32:52.928448","MEAN_MOTION":15.25419257,"ECCENTRICITY":0.00091697,"INCLINATION":97.515,"RA_OF_ASC_NODE":158.732,"ARG_OF_PERICENTER":358.5505,"MEAN_ANOMALY":1.5704,"EPHEMERIS_TYPE":0,"CLASSIFICATION_TYPE":"U","NORAD_CAT_ID":57187,"ELEMENT_SET_NO":999,"REV_AT_EPOCH":15319,"BSTAR":0.00048178142,"MEAN_MOTION_DOT":0.00012122,"MEAN_MOTION_DDOT":0},{"OBJECT_NAME":"VIZARD-METEO (RS38S)","OBJECT_ID":"2023-091Z","EPOCH":"2026-04-05T03:06:36.939744","MEAN_MOTION":15.33808223,"ECCENTRICITY":0.00064994,"INCLINATION":97.5142,"RA_OF_ASC_NODE":163.2622,"ARG_OF_PERICENTER":340.6991,"MEAN_ANOMALY":19.4004,"EPHEMERIS_TYPE":0,"CLASSIFICATION_TYPE":"U","NORAD_CAT_ID":57189,"ELEMENT_SET_NO":999,"REV_AT_EPOCH":15348,"BSTAR":0.00071612327,"MEAN_MOTION_DOT":0.00023393,"MEAN_MOTION_DDOT":0},{"OBJECT_NAME":"NANOZOND 1 (RS49S)","OBJECT_ID":"2023-091AA","EPOCH":"2026-04-05T04:29:12.440256","MEAN_MOTION":15.92951586,"ECCENTRICITY":0.00072132,"INCLINATION":97.4955,"RA_OF_ASC_NODE":177.8523,"ARG_OF_PERICENTER":261.1338,"MEAN_ANOMALY":98.912,"EPHEMERIS_TYPE":0,"CLASSIFICATION_TYPE":"U","NORAD_CAT_ID":57190,"ELEMENT_SET_NO":999,"REV_AT_EPOCH":15446,"BSTAR":0.0018773441,"MEAN_MOTION_DOT":0.00648711,"MEAN_MOTION_DDOT":0.00017327108},{"OBJECT_NAME":"POLYTECH-UNIVERSE 3 (RS46S)","OBJECT_ID":"2023-091AB","EPOCH":"2026-04-05T06:33:53.500032","MEAN_MOTION":15.18450456,"ECCENTRICITY":0.00162865,"INCLINATION":97.5117,"RA_OF_ASC_NODE":153.5432,"ARG_OF_PERICENTER":28.9709,"MEAN_ANOMALY":331.2426,"EPHEMERIS_TYPE":0,"CLASSIFICATION_TYPE":"U","NORAD_CAT_ID":57191,"ELEMENT_SET_NO":999,"REV_AT_EPOCH":15288,"BSTAR":0.00034230268,"MEAN_MOTION_DOT":7.007e-5,"MEAN_MOTION_DDOT":0},{"OBJECT_NAME":"UTMN 2 (RS27S)","OBJECT_ID":"2023-091AP","EPOCH":"2026-04-05T06:11:35.348064","MEAN_MOTION":15.30332422,"ECCENTRICITY":0.0007467,"INCLINATION":97.5143,"RA_OF_ASC_NODE":161.5481,"ARG_OF_PERICENTER":347.383,"MEAN_ANOMALY":12.7223,"EPHEMERIS_TYPE":0,"CLASSIFICATION_TYPE":"U","NORAD_CAT_ID":57203,"ELEMENT_SET_NO":999,"REV_AT_EPOCH":15338,"BSTAR":0.00062574063,"MEAN_MOTION_DOT":0.00018319,"MEAN_MOTION_DDOT":0},{"OBJECT_NAME":"KUZGTU 1 (RS47S)","OBJECT_ID":"2023-091AV","EPOCH":"2026-04-05T03:07:12.204768","MEAN_MOTION":15.28262031,"ECCENTRICITY":0.00108717,"INCLINATION":97.5125,"RA_OF_ASC_NODE":158.9364,"ARG_OF_PERICENTER":2.6391,"MEAN_ANOMALY":357.4903,"EPHEMERIS_TYPE":0,"CLASSIFICATION_TYPE":"U","NORAD_CAT_ID":57217,"ELEMENT_SET_NO":999,"REV_AT_EPOCH":15321,"BSTAR":0.00063834357,"MEAN_MOTION_DOT":0.00017553,"MEAN_MOTION_DDOT":0},{"OBJECT_NAME":"SONATE-2","OBJECT_ID":"2024-043Q","EPOCH":"2026-04-05T03:38:07.381248","MEAN_MOTION":15.53658637,"ECCENTRICITY":0.00076778,"INCLINATION":97.5444,"RA_OF_ASC_NODE":241.4039,"ARG_OF_PERICENTER":112.372,"MEAN_ANOMALY":247.8347,"EPHEMERIS_TYPE":0,"CLASSIFICATION_TYPE":"U","NORAD_CAT_ID":59112,"ELEMENT_SET_NO":999,"REV_AT_EPOCH":11653,"BSTAR":0.00075265711,"MEAN_MOTION_DOT":0.00048232,"MEAN_MOTION_DDOT":0},{"OBJECT_NAME":"MESAT1","OBJECT_ID":"2024-125G","EPOCH":"2026-04-05T03:37:25.949856","MEAN_MOTION":15.56315535,"ECCENTRICITY":0.00126313,"INCLINATION":97.2402,"RA_OF_ASC_NODE":311.3199,"ARG_OF_PERICENTER":125.8363,"MEAN_ANOMALY":234.4068,"EPHEMERIS_TYPE":0,"CLASSIFICATION_TYPE":"U","NORAD_CAT_ID":60209,"ELEMENT_SET_NO":999,"REV_AT_EPOCH":9818,"BSTAR":0.00081318619,"MEAN_MOTION_DOT":0.0005763,"MEAN_MOTION_DDOT":0}]
